CCSDS_OMM_VERS = 2.0
CREATION_DATE  = 
ORIGINATOR     = 

OBJECT_NAME    = UNKNOWN
OBJECT_ID      = 
CENTER_NAME    = EARTH
REF_FRAME      = TEME
TIME_SYSTEM    = UTC
MEAN_ELEMENT_THEORY = SGP/SGP4

EPOCH          = 2025-11-10T15:53:49.192224
MEAN_MOTION    = 12.50038553
ECCENTRICITY   = .00233325
INCLINATION    = 73.6010
RA_OF_ASC_NODE = 105.6937
ARG_OF_PERICENTER = 350.1588
MEAN_ANOMALY   = 9.9000

EPHEMERIS_TYPE = 0
CLASSIFICATION_TYPE = U
NORAD_CAT_ID   = 270292
ELEMENT_SET_NO = 999
REV_AT_EPOCH   = 27173
BSTAR          = .19559195E-2
MEAN_MOTION_DOT = .28E-5
MEAN_MOTION_DDOT = 0

CCSDS_OMM_VERS = 2.0
CREATION_DATE  = 
ORIGINATOR     = 

OBJECT_NAME    = UNKNOWN
OBJECT_ID      = 
CENTER_NAME    = EARTH
REF_FRAME      = TEME
TIME_SYSTEM    = UTC
MEAN_ELEMENT_THEORY = SGP/SGP4

EPOCH          = 2025-11-08T04:22:39.651168
MEAN_MOTION    = 14.54414185
ECCENTRICITY   = .00071306
INCLINATION    = 98.6704
RA_OF_ASC_NODE = 110.8492
ARG_OF_PERICENTER = 64.5156
MEAN_ANOMALY   = 295.6776

EPHEMERIS_TYPE = 0
CLASSIFICATION_TYPE = U
NORAD_CAT_ID   = 270293
ELEMENT_SET_NO = 999
REV_AT_EPOCH   = 31473
BSTAR          = .74466185E-3
MEAN_MOTION_DOT = .312E-4
MEAN_MOTION_DDOT = 0

CCSDS_OMM_VERS = 2.0
CREATION_DATE  = 
ORIGINATOR     = 

OBJECT_NAME    = UNKNOWN
OBJECT_ID      = 
CENTER_NAME    = EARTH
REF_FRAME      = TEME
TIME_SYSTEM    = UTC
MEAN_ELEMENT_THEORY = SGP/SGP4

EPOCH          = 2025-11-12T00:36:32.327424
MEAN_MOTION    = 14.30255312
ECCENTRICITY   = .00744413
INCLINATION    = 99.1607
RA_OF_ASC_NODE = 237.9256
ARG_OF_PERICENTER = 236.6749
MEAN_ANOMALY   = 122.7289

EPHEMERIS_TYPE = 0
CLASSIFICATION_TYPE = U
NORAD_CAT_ID   = 270294
ELEMENT_SET_NO = 999
REV_AT_EPOCH   = 30994
BSTAR          = .67434939E-3
MEAN_MOTION_DOT = .1753E-4
MEAN_MOTION_DDOT = 0

CCSDS_OMM_VERS = 2.0
CREATION_DATE  = 
ORIGINATOR     = 

OBJECT_NAME    = UNKNOWN
OBJECT_ID      = 
CENTER_NAME    = EARTH
REF_FRAME      = TEME
TIME_SYSTEM    = UTC
MEAN_ELEMENT_THEORY = SGP/SGP4

EPOCH          = 2025-11-14T15:41:37.939776
MEAN_MOTION    = 14.69942615
ECCENTRICITY   = .00982481
INCLINATION    = 97.7306
RA_OF_ASC_NODE = 285.2402
ARG_OF_PERICENTER = 162.0096
MEAN_ANOMALY   = 198.4629

EPHEMERIS_TYPE = 0
CLASSIFICATION_TYPE = U
NORAD_CAT_ID   = 270295
ELEMENT_SET_NO = 999
REV_AT_EPOCH   = 8490
BSTAR          = .25955462E-2
MEAN_MOTION_DOT = .16729E-3
MEAN_MOTION_DDOT = 0

CCSDS_OMM_VERS = 2.0
CREATION_DATE  = 
ORIGINATOR     = 

OBJECT_NAME    = UNKNOWN
OBJECT_ID      = 
CENTER_NAME    = EARTH
REF_FRAME      = TEME
TIME_SYSTEM    = UTC
MEAN_ELEMENT_THEORY = SGP/SGP4

EPOCH          = 2025-11-14T10:07:40.475136
MEAN_MOTION    = 12.97974163
ECCENTRICITY   = .00282315
INCLINATION    = 90.2389
RA_OF_ASC_NODE = 2.2494
ARG_OF_PERICENTER = 218.6827
MEAN_ANOMALY   = 141.2273

EPHEMERIS_TYPE = 0
CLASSIFICATION_TYPE = U
NORAD_CAT_ID   = 270296
ELEMENT_SET_NO = 999
REV_AT_EPOCH   = 28167
BSTAR          = .24453686E-2
MEAN_MOTION_DOT = .723E-5
MEAN_MOTION_DDOT = 0

CCSDS_OMM_VERS = 2.0
CREATION_DATE  = 
ORIGINATOR     = 

OBJECT_NAME    = UNKNOWN
OBJECT_ID      = 
CENTER_NAME    = EARTH
REF_FRAME      = TEME
TIME_SYSTEM    = UTC
MEAN_ELEMENT_THEORY = SGP/SGP4

EPOCH          = 2025-11-16T14:35:37.291200
MEAN_MOTION    = 12.99403837
ECCENTRICITY   = .00426981
INCLINATION    = 90.2698
RA_OF_ASC_NODE = 18.1771
ARG_OF_PERICENTER = 138.6145
MEAN_ANOMALY   = 221.8225

EPHEMERIS_TYPE = 0
CLASSIFICATION_TYPE = U
NORAD_CAT_ID   = 270297
ELEMENT_SET_NO = 999
REV_AT_EPOCH   = 28211
BSTAR          = .28739604E-2
MEAN_MOTION_DOT = .868E-5
MEAN_MOTION_DDOT = 0

CCSDS_OMM_VERS = 2.0
CREATION_DATE  = 
ORIGINATOR     = 

OBJECT_NAME    = UNKNOWN
OBJECT_ID      = 
CENTER_NAME    = EARTH
REF_FRAME      = TEME
TIME_SYSTEM    = UTC
MEAN_ELEMENT_THEORY = SGP/SGP4

EPOCH          = 2025-11-15T23:53:26.535264
MEAN_MOTION    = 2.07785834
ECCENTRICITY   = .73621306
INCLINATION    = 60.0879
RA_OF_ASC_NODE = 220.5585
ARG_OF_PERICENTER = 73.4121
MEAN_ANOMALY   = 350.2237

EPHEMERIS_TYPE = 0
CLASSIFICATION_TYPE = U
NORAD_CAT_ID   = 270298
ELEMENT_SET_NO = 999
REV_AT_EPOCH   = 1110
BSTAR          = .13644033E-1
MEAN_MOTION_DOT = .3282E-4
MEAN_MOTION_DDOT = 0

CCSDS_OMM_VERS = 2.0
CREATION_DATE  = 
ORIGINATOR     = 

OBJECT_NAME    = UNKNOWN
OBJECT_ID      = 
CENTER_NAME    = EARTH
REF_FRAME      = TEME
TIME_SYSTEM    = UTC
MEAN_ELEMENT_THEORY = SGP/SGP4

EPOCH          = 2025-11-16T09:26:25.603296
MEAN_MOTION    = 12.95869512
ECCENTRICITY   = .00263776
INCLINATION    = 90.2457
RA_OF_ASC_NODE = 7.1848
ARG_OF_PERICENTER = 17.5984
MEAN_ANOMALY   = 342.6043

EPHEMERIS_TYPE = 0
CLASSIFICATION_TYPE = U
NORAD_CAT_ID   = 270299
ELEMENT_SET_NO = 999
REV_AT_EPOCH   = 26028
BSTAR          = .24081584E-3
MEAN_MOTION_DOT = .76E-6
MEAN_MOTION_DDOT = 0

CCSDS_OMM_VERS = 2.0
CREATION_DATE  = 
ORIGINATOR     = 

OBJECT_NAME    = UNKNOWN
OBJECT_ID      = 
CENTER_NAME    = EARTH
REF_FRAME      = TEME
TIME_SYSTEM    = UTC
MEAN_ELEMENT_THEORY = SGP/SGP4

EPOCH          = 2025-10-28T07:23:36.640608
MEAN_MOTION    = 14.50568888
ECCENTRICITY   = .00311785
INCLINATION    = 98.8555
RA_OF_ASC_NODE = 320.4483
ARG_OF_PERICENTER = 12.0041
MEAN_ANOMALY   = 348.1888

EPHEMERIS_TYPE = 0
CLASSIFICATION_TYPE = U
NORAD_CAT_ID   = 270300
ELEMENT_SET_NO = 999
REV_AT_EPOCH   = 7334
BSTAR          = .14826361E-2
MEAN_MOTION_DOT = .5801E-4
MEAN_MOTION_DDOT = 0

CCSDS_OMM_VERS = 2.0
CREATION_DATE  = 
ORIGINATOR     = 

OBJECT_NAME    = UNKNOWN
OBJECT_ID      = 
CENTER_NAME    = EARTH
REF_FRAME      = TEME
TIME_SYSTEM    = UTC
MEAN_ELEMENT_THEORY = SGP/SGP4

EPOCH          = 2025-11-14T18:53:09.414528
MEAN_MOTION    = 14.47645349
ECCENTRICITY   = .00153357
INCLINATION    = 98.9352
RA_OF_ASC_NODE = 334.7408
ARG_OF_PERICENTER = 153.7019
MEAN_ANOMALY   = 206.4954

EPHEMERIS_TYPE = 0
CLASSIFICATION_TYPE = U
NORAD_CAT_ID   = 270302
ELEMENT_SET_NO = 999
REV_AT_EPOCH   = 24265
BSTAR          = .21663286E-2
MEAN_MOTION_DOT = .7957E-4
MEAN_MOTION_DDOT = 0

CCSDS_OMM_VERS = 2.0
CREATION_DATE  = 
ORIGINATOR     = 

OBJECT_NAME    = UNKNOWN
OBJECT_ID      = 
CENTER_NAME    = EARTH
REF_FRAME      = TEME
TIME_SYSTEM    = UTC
MEAN_ELEMENT_THEORY = SGP/SGP4

EPOCH          = 2025-11-16T07:19:50.860128
MEAN_MOTION    = 15.10854518
ECCENTRICITY   = .00122764
INCLINATION    = 98.6205
RA_OF_ASC_NODE = 335.7298
ARG_OF_PERICENTER = 207.6879
MEAN_ANOMALY   = 152.3695

EPHEMERIS_TYPE = 0
CLASSIFICATION_TYPE = U
NORAD_CAT_ID   = 270303
ELEMENT_SET_NO = 999
REV_AT_EPOCH   = 24584
BSTAR          = .88564638E-2
MEAN_MOTION_DOT = .150501E-2
MEAN_MOTION_DDOT = 0

CCSDS_OMM_VERS = 2.0
CREATION_DATE  = 
ORIGINATOR     = 

OBJECT_NAME    = UNKNOWN
OBJECT_ID      = 
CENTER_NAME    = EARTH
REF_FRAME      = TEME
TIME_SYSTEM    = UTC
MEAN_ELEMENT_THEORY = SGP/SGP4

EPOCH          = 2025-11-14T12:02:34.926432
MEAN_MOTION    = 14.95989065
ECCENTRICITY   = .00042248
INCLINATION    = 98.6901
RA_OF_ASC_NODE = 329.8143
ARG_OF_PERICENTER = 208.5186
MEAN_ANOMALY   = 151.5801

EPHEMERIS_TYPE = 0
CLASSIFICATION_TYPE = U
NORAD_CAT_ID   = 270304
ELEMENT_SET_NO = 999
REV_AT_EPOCH   = 24401
BSTAR          = .60569243E-2
MEAN_MOTION_DOT = .68504E-3
MEAN_MOTION_DDOT = 0

CCSDS_OMM_VERS = 2.0
CREATION_DATE  = 
ORIGINATOR     = 

OBJECT_NAME    = UNKNOWN
OBJECT_ID      = 
CENTER_NAME    = EARTH
REF_FRAME      = TEME
TIME_SYSTEM    = UTC
MEAN_ELEMENT_THEORY = SGP/SGP4

EPOCH          = 2025-11-15T04:51:11.252448
MEAN_MOTION    = 14.37027824
ECCENTRICITY   = .00087905
INCLINATION    = 98.8135
RA_OF_ASC_NODE = 296.4863
ARG_OF_PERICENTER = 31.9462
MEAN_ANOMALY   = 328.2255

EPHEMERIS_TYPE = 0
CLASSIFICATION_TYPE = U
NORAD_CAT_ID   = 270305
ELEMENT_SET_NO = 999
REV_AT_EPOCH   = 24033
BSTAR          = .1237395E-2
MEAN_MOTION_DOT = .3627E-4
MEAN_MOTION_DDOT = 0

CCSDS_OMM_VERS = 2.0
CREATION_DATE  = 
ORIGINATOR     = 

OBJECT_NAME    = UNKNOWN
OBJECT_ID      = 
CENTER_NAME    = EARTH
REF_FRAME      = TEME
TIME_SYSTEM    = UTC
MEAN_ELEMENT_THEORY = SGP/SGP4

EPOCH          = 2025-10-23T10:49:29.708256
MEAN_MOTION    = 12.92640205
ECCENTRICITY   = .00299293
INCLINATION    = 90.2476
RA_OF_ASC_NODE = 1.7420
ARG_OF_PERICENTER = 184.7365
MEAN_ANOMALY   = 175.3474

EPHEMERIS_TYPE = 0
CLASSIFICATION_TYPE = U
NORAD_CAT_ID   = 270306
ELEMENT_SET_NO = 999
REV_AT_EPOCH   = 23403
BSTAR          = .17634153E-2
MEAN_MOTION_DOT = .486E-5
MEAN_MOTION_DDOT = 0

CCSDS_OMM_VERS = 2.0
CREATION_DATE  = 
ORIGINATOR     = 

OBJECT_NAME    = UNKNOWN
OBJECT_ID      = 
CENTER_NAME    = EARTH
REF_FRAME      = TEME
TIME_SYSTEM    = UTC
MEAN_ELEMENT_THEORY = SGP/SGP4

EPOCH          = 2025-11-13T02:04:34.759488
MEAN_MOTION    = 13.64279612
ECCENTRICITY   = .01057635
INCLINATION    = 82.6824
RA_OF_ASC_NODE = 242.0559
ARG_OF_PERICENTER = 347.3293
MEAN_ANOMALY   = 12.5200

EPHEMERIS_TYPE = 0
CLASSIFICATION_TYPE = U
NORAD_CAT_ID   = 270307
ELEMENT_SET_NO = 999
REV_AT_EPOCH   = 27286
BSTAR          = .27891584E-1
MEAN_MOTION_DOT = .23221E-3
MEAN_MOTION_DDOT = 0

CCSDS_OMM_VERS = 2.0
CREATION_DATE  = 
ORIGINATOR     = 

OBJECT_NAME    = UNKNOWN
OBJECT_ID      = 
CENTER_NAME    = EARTH
REF_FRAME      = TEME
TIME_SYSTEM    = UTC
MEAN_ELEMENT_THEORY = SGP/SGP4

EPOCH          = 2025-11-14T09:41:34.600416
MEAN_MOTION    = 12.98868096
ECCENTRICITY   = .02092032
INCLINATION    = 82.5749
RA_OF_ASC_NODE = 358.6406
ARG_OF_PERICENTER = 327.5804
MEAN_ANOMALY   = 31.2594

EPHEMERIS_TYPE = 0
CLASSIFICATION_TYPE = U
NORAD_CAT_ID   = 270308
ELEMENT_SET_NO = 999
REV_AT_EPOCH   = 26928
BSTAR          = .10880332E-1
MEAN_MOTION_DOT = .3575E-4
MEAN_MOTION_DDOT = 0

